#dP2021  2  7  6  0  0.00000000      96 __u+U ITR00 EXT  IAC
## 2144  21600.00000000   900.00000000 59252 0.2500000000000
+  115   C07C08C09C10C11C12C13C14C16C19C20C21C22C23C24C25C26
+        C27C28C29C30C32C33C34C35C36C37C38C39C40C41C42C43C44
+        C45C46E01E02E03E04E05E07E08E09E11E12E13E14E15E18E19
+        E21E24E25E26E27E30E31E33E36G01G02G03G04G05G06G07G08
+        G09G10G11G12G13G14G15G16G17G18G19G20G21G22G23G24G25
+        G26G27G28G29G30G31G32J01J02J03R01R02R03R04R05R07R08
+        R11R12R13R14R15R16R17R18R19R20R21R22R24  0  0  0  0
++        10  8 10 10  8 10  9 13 11 10 10  9  8 10  9 10  8
++         8  9 10  8 10  8  9  8  9 10  8 12 12  9  9  7 10
++        10  8  8  7  7  7  8  8  8  7  8  8  9  8  8  7  7
++         7  8  8  7  7  8 10  9  7  8  7  7  8  7  8  8  9
++         7  7  8  9  7  8  7  8  9  7  9  7  8  8  8  7  7
++         7  8  8  8  8  8  8 10 10 10 10  9  8  8  8  8  9
++         8  8  9  8  8  8  9  9  8  9  9  9  8  0  0  0  0
%c M  cc GPS ccc cccc cccc cccc cccc ccccc ccccc ccccc ccccc
%c cc cc ccc ccc cccc cccc cccc cccc ccccc ccccc ccccc ccccc
%f  0.0000000  0.000000000  0.00000000000  0.000000000000000
%f  0.0000000  0.000000000  0.00000000000  0.000000000000000
%i    0    0    0    0      0      0      0      0         0
%i    0    0    0    0      0      0      0      0         0
/* IAC                                ULTRA-RAPID PREDICTION
/* S/V CLOCKS ARE ALIGNED TO GNSS TIME                      
/* G:C1WC2W R:C1PC2P E:C1XC5X C:C2IC6I J:C1CC2S             
/* PCV:IGS14_2134 OL/AL:FES2004  NONE     YN ORB:CoN CLK:CoN
*  2021 02 07 16  0  0.00000000
PC07 -13760.563572  38044.674941 -10630.341161   -303.449111
PC08  -6443.925476  22093.933950  35494.094472   -918.295623
PC09  -7127.139884  25803.107941 -32395.298021    749.569294
PC10  -4337.748852  41686.411737   1196.872281    -90.435525
PC11  23200.302331   6201.944885  14313.590869   -938.782353
PC12   6114.935021  14446.212641  23121.148156    782.018938
PC13   7583.541419  30303.990630  28547.706093    131.564011
PC14  13146.814470   9713.331089 -22586.889800     81.608063
PC16 -20730.395348  25842.840572 -26128.644848   -687.078450
PC19 -16818.636753   1047.864354  22266.596939    719.410078
PC20  -8181.613685 -17680.308481  20004.795208   -913.418244
PC21  -5813.596905  26690.676444  -5646.550414   -827.395618
PC22 -15976.553038  19681.386209  11644.216053   -871.236876
PC23  13018.355830  -9704.518082  22693.807979   -876.744361
PC24  16950.428085  22169.126411   -992.846021   -755.729708
PC25  21538.099087   7805.150655  15944.830847   -925.159544
PC26   4076.990911  22495.668503 -16037.882951    951.830209
PC27   5028.224047 -16208.423229 -22162.900227    479.462234
PC28  22888.347989 -11268.205468 -11307.381889   -112.315510
PC29 -27222.579562    785.091187  -6106.838424    349.245638
PC30 -15664.133725 -11278.434531 -20162.872947    441.734540
PC32   5597.155325 -26750.809557   5668.043418   -891.386568
PC33  16815.370201  -1069.791184 -22241.466781   -954.961322
PC34  16235.586938  11031.593333  19821.116103   -745.312271
PC35 -22694.793242  11952.956705  11037.476214   -428.916360
PC36 -21379.635743  -8600.957971 -15714.105689   -760.332150
PC37  -2777.416639 -22245.544244  16614.618792   -863.359848
PC38  -5758.160811  25003.739344  33509.250537    128.645314
PC39 -18084.661586  27265.008692 -26668.484548     28.232265
PC40 -11219.749395  40505.591251  -2236.053226    129.202653
PC41  15988.452967 -19563.070561 -11790.106487   -930.676644
PC42   7763.438725  18239.482860 -19595.518935   -851.578154
PC43  27121.134104   -301.299674   6506.232563   -587.355818
PC44  -4765.038872  16492.654787  22004.373759     26.775705
PC45 -12832.433640   9749.682266 -22782.944893    356.016236
PC46 -17441.398678 -21754.039787    161.079970    416.106019
PE01  13000.796246  24131.112608  11189.423198  -1041.231601
PE02 -13055.174499 -24029.907864 -11299.937030    196.725745
PE03 -10670.246477 -13397.319228  24137.365371   -396.036446
PE04  23196.067708  -4103.731110 -17921.387430   -704.997493
PE05   8294.891481 -23287.017286  16279.068885   -306.471800
PE07 -22243.072753  19498.896992   1001.567250   -497.836557
PE08 -23195.989666   4581.562835  17800.123578   6050.434987
PE09  22077.347761 -19708.691354   -857.185259   5773.141961
PE11  19381.381766  -8332.564000 -20754.597243   6354.933238
PE12  28693.485324   5555.533154  -4617.795118   5367.727777
PE13 -19695.427248   8082.869534  20580.256984    411.668320
PE14  25446.399597 -13489.629676   -630.968417  -1321.865152
PE15 -28723.888928  -5422.904166   4694.301766    830.457508
PE18 -25883.671971   2131.525052 -11421.223414  -1444.934942
PE19   8527.622431  15003.021995 -24048.563346    197.985212
PE21   1591.110085  28727.916590  -6983.768701   -647.169707
PE24  11635.104809 -16113.562240  21911.111668   -731.237410
PE25  -1463.107923 -28679.531878   7154.332960   -525.950190
PE26   1572.745998  17133.272564  24097.458802   2175.090663
PE27 -11168.577247  16816.283698 -21653.956062     34.767229
PE30 -17350.684511  -5846.353634 -23263.717301   3199.957617
PE31  17296.971216   4927.417548  23516.566894   -478.072591
PE33  20822.199676  15738.034329  13965.474846   -465.498812
PE36   -903.963281 -16812.809539 -24333.778904    443.759906
PG01 -22205.187278 -14749.776812  -2427.645864    765.843024
PG02   4363.655362  17584.142345  20076.097337   -574.413041
PG03 -12821.762883 -14027.428326  18518.559173    -76.811947
PG04 -16912.776569  -6332.344818  19495.982795   -178.573390
PG05   3846.613374  25911.032448  -3905.005634    -33.070609
PG06  -9825.482771  11301.938705  22004.601799     -3.440995
PG07 -23774.197943  -4642.899531 -11104.341458     50.398598
PG08 -10624.914405 -11016.840284 -21722.006316     -9.440372
PG09 -23383.195711   4506.706537  11721.641915   -320.663603
PG10  11818.555818 -15951.451178 -17402.999746    -56.427403
PG11 -18722.971468 -11993.312049 -14718.950194    -31.170680
PG12   9760.148422  18569.716125  16133.735378      2.132687
PG13   -870.452891  16180.126985 -21158.260669     94.565879
PG14 -13305.584996  14110.244368 -18154.323187     94.985960
PG15  12558.964431  10488.516639 -21310.488651   -171.003601
PG16    235.254619 -26171.616095  -2862.235302   -276.634416
PG17 -21646.547504  14712.989255   4917.968231    390.151790
PG18  22443.562123   2080.436946 -14100.485713    346.115688
PG19 -17373.723850  16267.296893  11410.931988    -41.584671
PG20  15404.090970  -3386.692563 -21416.832210    524.804411
PG21 -18940.640598 -16153.371046  -9106.120436     93.593556
PG22 -11125.888640 -21098.043232  12056.841654   -683.804195
PG23  14845.486966  -4589.603881 -21558.601235    118.134463
PG24  20320.294259  15870.878157  -7415.066252      2.664183
PG25  14935.520533   3805.573554  21402.502508     75.761874
PG26   5071.978404 -24452.611097   8596.122104     41.489396
PG27   3140.809097 -17399.133428 -19857.291071    -71.715066
PG28 -12207.962941  17173.023683 -15723.275225    618.879806
PG29  23470.431879  -2600.013293  12159.439521   -290.602279
PG30 -17603.210965   5735.105986 -19075.811730   -381.165834
PG31   7942.617460 -13056.908153  21642.707721    -98.670660
PG32  20236.864498 -16296.544221   5150.242890     17.866705
PJ01 -32447.458242  25929.842819  12134.362292   -339.677158
PJ02 -20056.003316  23801.604374 -23952.813442      1.582025
PJ03 -29884.979473  26551.142424  18393.536854     -0.537506
PR01  12231.419947 -22352.990241   1322.840404     74.661393
PR02   -713.767472 -16418.505849  19524.495761    466.097538
PR03 -11959.782629   -965.769454  22556.884124     30.471937
PR04 -16185.047449  14897.843228  12945.946804     73.148075
PR05 -11562.289141  22405.597696  -3946.376753     66.135041
PR07  12191.941356    408.372186 -22360.406315    -42.359229
PR08  16203.332396 -14925.884220 -12787.114169    -57.257942
PR11  10426.358124  -3609.111910  23005.195391      3.629859
PR12   -966.280704 -18739.716595  17285.674347    203.107336
PR13 -11828.640115 -22529.049347   1721.504681    -50.408130
PR14 -15672.365500 -13018.673826 -15346.133196     60.757869
PR15 -10381.089501   3879.558843 -22959.627433    105.539810
PR16   1971.836888  19379.679907 -16573.301204    -11.024554
PR17 -23821.469796  -4260.238347  -7997.713302    398.066253
PR18 -23684.021140   3301.965182   8979.151705     65.868217
PR19 -11835.434692   8646.295740  20882.323795   -131.072516
PR20   9776.128319  10044.495952  21313.323038   -432.852556
PR21  24264.444692   3831.944632   6920.870725   -185.998815
PR22  23101.761880  -3664.673807 -10062.991846    -96.635858
PR24 -10672.893371 -10218.682822 -20766.846005     30.675364
EOF
